{
  "type": "FeatureCollection",
  "features": [
    {
      "type": "Feature",
      "properties": {
        "device": "field-4",
        "segment": "2025-12-22T09:28:03Z",
        "timestamp": "2025-12-22T11:55:06Z",
        "timestamp_ns": 1766397306327921755,
        "duration": 60.0,
        "recording_mode": "live",
        "audio_saved_to_disk": true,
        "test_audio_source": null,
        "recording_start_utc": "2025-12-22T09_55_06.327922Z",
        "recording_end_utc": "2025-12-22T09_56_06.325807Z",
        "wall_duration_s": 59.997885087,
        "nominal_duration_s": 60.0,
        "timing_delta_ms": -2.114913,
        "audio_filename": "field-4_2025-12-22T09_55_06.327922Z.wav",
        "gps_fix_status": 3,
        "gps_accuracy": 20.33,
        "gps_source": "gps",
        "models": [
          {
            "model_name": "finland_birds",
            "model_region": "finland",
            "model_analysis_type": "birds",
            "model_description": "Finland bird species classifier",
            "model_file": "bsg_fin_v3.5.tflite",
            "model_version": "v3.5",
            "threshold": 0.3,
            "input_sample_rate_hz": 384000,
            "processed_sample_rate_hz": 48000,
            "detections": []
          }
        ]
      },
      "geometry": {
        "type": "Point",
        "coordinates": [
          25.714838011,
          62.252990508
        ]
      }
    },
    {
      "type": "Feature",
      "properties": {
        "device": "field-4",
        "segment": "2025-12-22T09:28:03Z",
        "timestamp": "2025-12-22T12:00:03Z",
        "timestamp_ns": 1766397603016768884,
        "duration": 60.0,
        "recording_mode": "live",
        "audio_saved_to_disk": true,
        "test_audio_source": null,
        "recording_start_utc": "2025-12-22T10_00_03.016769Z",
        "recording_end_utc": "2025-12-22T10_01_03.016228Z",
        "wall_duration_s": 59.999458937,
        "nominal_duration_s": 60.0,
        "timing_delta_ms": -0.541063,
        "audio_filename": "field-4_2025-12-22T10_00_03.016769Z.wav",
        "gps_fix_status": 3,
        "gps_accuracy": 20.33,
        "gps_source": "gps",
        "models": [
          {
            "model_name": "finland_birds",
            "model_region": "finland",
            "model_analysis_type": "birds",
            "model_description": "Finland bird species classifier",
            "model_file": "bsg_fin_v3.5.tflite",
            "model_version": "v3.5",
            "threshold": 0.3,
            "input_sample_rate_hz": 384000,
            "processed_sample_rate_hz": 48000,
            "detections": [
              {
                "species_class": 161,
                "species_name": "Eurasian Tree Sparrow",
                "scientific_name": "Passer montanus",
                "probability": 0.9644650633862617,
                "offset_s": 32.0
              }
            ]
          }
        ]
      },
      "geometry": {
        "type": "Point",
        "coordinates": [
          25.714838011,
          62.252990508
        ]
      }
    },
    {
      "type": "Feature",
      "properties": {
        "device": "field-4",
        "segment": "2025-12-22T09:28:03Z",
        "timestamp": "2025-12-22T12:05:03Z",
        "timestamp_ns": 1766397903011299830,
        "duration": 60.0,
        "recording_mode": "live",
        "audio_saved_to_disk": true,
        "test_audio_source": null,
        "recording_start_utc": "2025-12-22T10_05_03.011300Z",
        "recording_end_utc": "2025-12-22T10_06_03.015185Z",
        "wall_duration_s": 60.003885357,
        "nominal_duration_s": 60.0,
        "timing_delta_ms": 3.885357,
        "audio_filename": "field-4_2025-12-22T10_05_03.011300Z.wav",
        "gps_fix_status": 3,
        "gps_accuracy": 20.33,
        "gps_source": "gps",
        "models": [
          {
            "model_name": "finland_birds",
            "model_region": "finland",
            "model_analysis_type": "birds",
            "model_description": "Finland bird species classifier",
            "model_file": "bsg_fin_v3.5.tflite",
            "model_version": "v3.5",
            "threshold": 0.3,
            "input_sample_rate_hz": 384000,
            "processed_sample_rate_hz": 48000,
            "detections": [
              {
                "species_class": 172,
                "species_name": "Eurasian Bullfinch",
                "scientific_name": "Pyrrhula pyrrhula",
                "probability": 0.9358305463125524,
                "offset_s": 28.0
              }
            ]
          }
        ]
      },
      "geometry": {
        "type": "Point",
        "coordinates": [
          25.714838011,
          62.252990508
        ]
      }
    },
    {
      "type": "Feature",
      "properties": {
        "device": "field-4",
        "segment": "2025-12-22T09:28:03Z",
        "timestamp": "2025-12-22T12:10:03Z",
        "timestamp_ns": 1766398203010192821,
        "duration": 60.0,
        "recording_mode": "live",
        "audio_saved_to_disk": true,
        "test_audio_source": null,
        "recording_start_utc": "2025-12-22T10_10_03.010193Z",
        "recording_end_utc": "2025-12-22T10_11_03.024014Z",
        "wall_duration_s": 60.013821338,
        "nominal_duration_s": 60.0,
        "timing_delta_ms": 13.821338,
        "audio_filename": "field-4_2025-12-22T10_10_03.010193Z.wav",
        "gps_fix_status": 3,
        "gps_accuracy": 20.33,
        "gps_source": "gps",
        "models": [
          {
            "model_name": "finland_birds",
            "model_region": "finland",
            "model_analysis_type": "birds",
            "model_description": "Finland bird species classifier",
            "model_file": "bsg_fin_v3.5.tflite",
            "model_version": "v3.5",
            "threshold": 0.3,
            "input_sample_rate_hz": 384000,
            "processed_sample_rate_hz": 48000,
            "detections": [
              {
                "species_class": 172,
                "species_name": "Eurasian Bullfinch",
                "scientific_name": "Pyrrhula pyrrhula",
                "probability": 0.5536519983463105,
                "offset_s": 16.0
              },
              {
                "species_class": 254,
                "species_name": "European Greenfinch",
                "scientific_name": "Chloris chloris",
                "probability": 0.9374611037970458,
                "offset_s": 28.0
              }
            ]
          }
        ]
      },
      "geometry": {
        "type": "Point",
        "coordinates": [
          25.714838011,
          62.252990508
        ]
      }
    }
  ]
}