{
  "type": "FeatureCollection",
  "features": [
    {
      "type": "Feature",
      "properties": {
        "device": "field-3",
        "segment": "2025-12-22T09:47:12Z",
        "timestamp": "2025-12-22T11:55:07Z",
        "timestamp_ns": 1766397307009250437,
        "duration": 60.0,
        "recording_mode": "live",
        "audio_saved_to_disk": true,
        "test_audio_source": null,
        "recording_start_utc": "2025-12-22T09_55_07.009251Z",
        "recording_end_utc": "2025-12-22T09_56_07.009320Z",
        "wall_duration_s": 60.000069215,
        "nominal_duration_s": 60.0,
        "timing_delta_ms": 0.069215,
        "audio_filename": "field-3_2025-12-22T09_55_07.009251Z.wav",
        "gps_fix_status": 3,
        "gps_accuracy": 30.59,
        "gps_source": "gps",
        "models": [
          {
            "model_name": "finland_birds",
            "model_region": "finland",
            "model_analysis_type": "birds",
            "model_description": "Finland bird species classifier",
            "model_file": "bsg_fin_v3.5.tflite",
            "model_version": "v3.5",
            "threshold": 0.3,
            "input_sample_rate_hz": 384000,
            "processed_sample_rate_hz": 48000,
            "detections": [
              {
                "species_class": 172,
                "species_name": "Eurasian Bullfinch",
                "scientific_name": "Pyrrhula pyrrhula",
                "probability": 0.8519414592794865,
                "offset_s": 20.0
              },
              {
                "species_class": 255,
                "species_name": "Eurasian Siskin",
                "scientific_name": "Spinus spinus",
                "probability": 0.5229461797237095,
                "offset_s": 0.0
              }
            ]
          }
        ]
      },
      "geometry": {
        "type": "Point",
        "coordinates": [
          25.699277968,
          62.258909713
        ]
      }
    },
    {
      "type": "Feature",
      "properties": {
        "device": "field-3",
        "segment": "2025-12-22T09:47:12Z",
        "timestamp": "2025-12-22T12:00:05Z",
        "timestamp_ns": 1766397605011223673,
        "duration": 60.0,
        "recording_mode": "live",
        "audio_saved_to_disk": true,
        "test_audio_source": null,
        "recording_start_utc": "2025-12-22T10_00_05.011224Z",
        "recording_end_utc": "2025-12-22T10_01_05.026065Z",
        "wall_duration_s": 60.014841453,
        "nominal_duration_s": 60.0,
        "timing_delta_ms": 14.841453,
        "audio_filename": "field-3_2025-12-22T10_00_05.011224Z.wav",
        "gps_fix_status": 3,
        "gps_accuracy": 30.59,
        "gps_source": "gps",
        "models": [
          {
            "model_name": "finland_birds",
            "model_region": "finland",
            "model_analysis_type": "birds",
            "model_description": "Finland bird species classifier",
            "model_file": "bsg_fin_v3.5.tflite",
            "model_version": "v3.5",
            "threshold": 0.3,
            "input_sample_rate_hz": 384000,
            "processed_sample_rate_hz": 48000,
            "detections": [
              {
                "species_class": 161,
                "species_name": "Eurasian Tree Sparrow",
                "scientific_name": "Passer montanus",
                "probability": 0.9647898157590329,
                "offset_s": 36.0
              },
              {
                "species_class": 172,
                "species_name": "Eurasian Bullfinch",
                "scientific_name": "Pyrrhula pyrrhula",
                "probability": 0.9260905481223982,
                "offset_s": 2.0
              },
              {
                "species_class": 218,
                "species_name": "Great Tit",
                "scientific_name": "Parus major",
                "probability": 0.3160763836725683,
                "offset_s": 36.0
              }
            ]
          }
        ]
      },
      "geometry": {
        "type": "Point",
        "coordinates": [
          25.699277968,
          62.258909713
        ]
      }
    },
    {
      "type": "Feature",
      "properties": {
        "device": "field-3",
        "segment": "2025-12-22T09:47:12Z",
        "timestamp": "2025-12-22T12:05:05Z",
        "timestamp_ns": 1766397905011485295,
        "duration": 60.0,
        "recording_mode": "live",
        "audio_saved_to_disk": true,
        "test_audio_source": null,
        "recording_start_utc": "2025-12-22T10_05_05.011485Z",
        "recording_end_utc": "2025-12-22T10_06_05.008474Z",
        "wall_duration_s": 59.996988984,
        "nominal_duration_s": 60.0,
        "timing_delta_ms": -3.011016,
        "audio_filename": "field-3_2025-12-22T10_05_05.011485Z.wav",
        "gps_fix_status": 3,
        "gps_accuracy": 30.59,
        "gps_source": "gps",
        "models": [
          {
            "model_name": "finland_birds",
            "model_region": "finland",
            "model_analysis_type": "birds",
            "model_description": "Finland bird species classifier",
            "model_file": "bsg_fin_v3.5.tflite",
            "model_version": "v3.5",
            "threshold": 0.3,
            "input_sample_rate_hz": 384000,
            "processed_sample_rate_hz": 48000,
            "detections": [
              {
                "species_class": 25,
                "species_name": "Goldcrest",
                "scientific_name": "Regulus regulus",
                "probability": 0.4561159839585498,
                "offset_s": 42.0
              },
              {
                "species_class": 161,
                "species_name": "Eurasian Tree Sparrow",
                "scientific_name": "Passer montanus",
                "probability": 0.4624936522423362,
                "offset_s": 32.0
              },
              {
                "species_class": 207,
                "species_name": "Mallard",
                "scientific_name": "Anas platyrhynchos",
                "probability": 0.5618742320824431,
                "offset_s": 2.0
              },
              {
                "species_class": 209,
                "species_name": "Eurasian Blue Tit",
                "scientific_name": "Cyanistes caeruleus",
                "probability": 0.46523632143394156,
                "offset_s": 8.0
              }
            ]
          }
        ]
      },
      "geometry": {
        "type": "Point",
        "coordinates": [
          25.699277968,
          62.258909713
        ]
      }
    },
    {
      "type": "Feature",
      "properties": {
        "device": "field-3",
        "segment": "2025-12-22T09:47:12Z",
        "timestamp": "2025-12-22T12:10:05Z",
        "timestamp_ns": 1766398205011724816,
        "duration": 60.0,
        "recording_mode": "live",
        "audio_saved_to_disk": true,
        "test_audio_source": null,
        "recording_start_utc": "2025-12-22T10_10_05.011725Z",
        "recording_end_utc": "2025-12-22T10_11_05.010699Z",
        "wall_duration_s": 59.998973721,
        "nominal_duration_s": 60.0,
        "timing_delta_ms": -1.026279,
        "audio_filename": "field-3_2025-12-22T10_10_05.011725Z.wav",
        "gps_fix_status": 3,
        "gps_accuracy": 30.59,
        "gps_source": "gps",
        "models": [
          {
            "model_name": "finland_birds",
            "model_region": "finland",
            "model_analysis_type": "birds",
            "model_description": "Finland bird species classifier",
            "model_file": "bsg_fin_v3.5.tflite",
            "model_version": "v3.5",
            "threshold": 0.3,
            "input_sample_rate_hz": 384000,
            "processed_sample_rate_hz": 48000,
            "detections": []
          }
        ]
      },
      "geometry": {
        "type": "Point",
        "coordinates": [
          25.699277968,
          62.258909713
        ]
      }
    }
  ]
}